143P/Kowal-Mrkos,e,5.3950,242.0429,304.8344,4.752800,0.0951217,0.37785667,333.0716,03/20.0/2026,2000,g 13.5,2.0
# From MPC191605
144P/Kushida,e,3.9308,242.9232,216.3883,3.835024,0.1312357,0.63489875,102.9065,03/20.0/2026,2000,g  8.5,8.0
# From MPEC 2026-EC7
145P/Shoemaker-Levy,e,11.2782,26.7665,10.4239,4.129405,0.1174554,0.54237556,5.5271,03/20.0/2026,2000,g 13.5,4.0
# From MPC191606
146P/Shoemaker-LINEAR,e,23.1175,53.3171,317.0125,4.021532,0.1222128,0.64761952,72.3072,03/20.0/2026,2000,g 15.0,4.0
# From MPC191606
147P/Kushida-Muramatsu,e,2.3112,91.6664,348.6516,4.009596,0.1227589,0.21152105,102.3838,03/20.0/2026,2000,g 14.0,4.0
# From MPC191606
148P/Anderson-LINEAR,e,3.6585,89.1942,8.1015,3.620280,0.1430839,0.55036322,196.6482,03/20.0/2026,2000,g 16.0,2.0
# From MPC191606
149P/Mueller,e,34.2604,143.7014,30.0431,4.135658,0.1171891,0.32464162,328.2967,03/20.0/2026,2000,g  8.0,8.0
# From MPC191606
150P/LONEOS,e,18.5471,272.0535,246.1294,3.872319,0.1293443,0.54938770,95.3684,03/20.0/2026,2000,g 13.5,4.0
# From MPC191606
151P/Helin,e,4.7218,143.0533,216.1893,5.768527,0.0711388,0.57214268,271.2622,03/20.0/2026,2000,g 10.0,6.0
# From MPC191606
152P/Helin-Lawrence,e,9.8795,91.7767,164.3797,4.486336,0.1037209,0.30642943,158.5036,03/20.0/2026,2000,g 11.5,4.0
# From MPC191606
154P/Brewington,e,17.6406,342.9949,47.9048,4.792580,0.0939399,0.67612132,60.5834,03/20.0/2026,2000,g  2.5,12.0
# From MPC191607
156P/Russell-LINEAR,e,17.2559,35.3224,0.5334,3.462645,0.1529650,0.61468918,297.8016,03/20.0/2026,2000,g 15.5,2.0
# From MPC191607
157P/Tritton,e,12.4253,287.4954,155.1999,3.548428,0.1474518,0.55665498,189.7230,03/20.0/2026,2000,g 10.0,4.0
# From MPEC 2022-VC5
157P-B/Tritton,e,12.4272,153.8634,287.2428,3.102750,0.1803366,0.49980319,232.3333,03/20.0/2026,2000,g 15.7,4.0
# From MPC191607
158P/Kowal-LINEAR,e,7.5015,124.1484,234.6207,5.740114,0.0716677,0.11405027,89.1548,03/20.0/2026,2000,g  9.0,4.0
# From MPC191607
159P/LONEOS,e,23.4749,54.9353,4.7606,5.856532,0.0695414,0.38218618,198.5242,03/20.0/2026,2000,g 10.0,4.0
# From MPC191607
160P/LINEAR,e,15.5889,333.3124,12.7825,3.780767,0.1340708,0.52486950,308.6200,03/20.0/2026,2000,g 15.5,2.0
# From MPC191607
161P/Hartley-IRAS,e,95.7895,1.4774,47.0735,7.720632,0.0459436,0.83614101,348.3985,03/20.0/2026,2000,g  8.5,6.0
# From MPC191607
162P/SidingSpring,e,27.5521,30.8676,357.2509,3.091214,0.1813470,0.58284387,349.3286,03/20.0/2026,2000,g 12.0,4.0
# From MPC191607
163P/NEAT,e,12.7243,102.0673,349.6834,3.759589,0.1352053,0.45345531,326.3322,03/20.0/2026,2000,g 14.5,4.0
# From MPEC 2026-F34
164P/Christensen,e,16.2756,88.2629,325.9046,3.651066,0.1412780,0.54138964,41.9124,03/20.0/2026,2000,g 11.0,4.0
# From MPC191608
165P/LINEAR,e,15.9149,0.6014,125.9841,17.81711,0.0131053,0.61956682,123.2182,03/20.0/2026,2000,g 11.5,2.0
# From MPC191608
166P/NEAT,e,15.3838,64.3450,321.9920,13.85344,0.0191147,0.38176732,166.2077,03/20.0/2026,2000,g  5.5,4.0
# From MPC191608
167P/CINEOS,e,19.0720,295.8453,344.2473,16.24127,0.0150582,0.26799974,137.5463,03/20.0/2026,2000,g  9.5,2.0
# From MPC191608
168P/Hergenrother,e,21.5950,355.3780,15.1037,3.585636,0.1451626,0.62103625,350.2295,03/20.0/2026,2000,g 15.5,4.0
# From MPC191608
169P/NEAT,e,11.2848,176.0379,218.1356,2.603674,0.2345979,0.76791943,316.5092,03/20.0/2026,2000,g 16.0,2.0
# From MPC191608
170P/Christensen,e,10.1366,142.6371,224.5196,4.189588,0.1149336,0.30561001,122.9885,03/20.0/2026,2000,g 12.0,4.0
# From MPEC 2026-E44
171P/Spahr,e,21.9547,101.6928,347.0467,3.552397,0.1472048,0.50280341,25.9117,03/20.0/2026,2000,g 13.5,4.0
# From MPC191608
172P/Yeung,e,11.2213,30.8774,208.8659,4.225143,0.1134859,0.20519613,15.6237,03/20.0/2026,2000,g 13.0,4.0
# From MPC191608
173P/Mueller,e,16.4936,100.3454,29.3737,5.717541,0.0720925,0.26245509,111.9067,03/20.0/2026,2000,g  7.5,4.0
# From MPEC 2026-F34
175P/Hergenrother,e,4.9296,109.7953,74.5879,3.689524,0.1390748,0.37467902,336.7512,03/20.0/2026,2000,g 14.0,4.0
# From MPC191609
178P/Hug-Bell,e,11.0927,102.7839,297.9660,3.632598,0.1423568,0.48210213,294.7219,03/20.0/2026,2000,g 13.5,4.0
# From MPEC 2026-E43
179P/Jedicke,e,19.8890,115.5042,297.2569,5.938112,0.0681132,0.30503895,94.5746,03/20.0/2026,2000,g  2.5,8.0
# From MPC191609
180P/NEAT,e,16.8604,84.5510,94.5970,3.867204,0.1296010,0.35410489,127.2171,03/20.0/2026,2000,g 11.0,4.0
# From MPC191609
181P/Shoemaker-Levy,e,17.4688,35.4288,336.3007,3.879942,0.1289633,0.69944909,197.6101,03/20.0/2026,2000,g 11.5,4.0
# From MPC191609
182P/LONEOS,e,16.2296,72.4377,54.2424,2.948122,0.1947090,0.66408386,273.8678,03/20.0/2026,2000,g 18.0,4.0
# From MPEC 2026-E43
183P/Korlevic-Juric,e,18.7217,3.2591,161.5450,4.721506,0.0960690,0.10355411,308.7577,03/20.0/2026,2000,g 12.5,2.0
# From MPC191609
184P/Lovas,e,4.5684,173.2224,186.5809,3.801907,0.1329542,0.54949372,262.2778,03/20.0/2026,2000,g 13.5,4.0
# From MPC191609
185P/Petriew,e,14.0037,214.1247,181.9245,3.100245,0.1805552,0.69913631,177.1968,03/20.0/2026,2000,g 15.0,4.0
# From MPC191609
186P/Garradd,e,28.7412,325.6790,267.4495,4.868631,0.0917474,0.12262990,245.7765,03/20.0/2026,2000,g  7.5,4.0
# From MPC191610
187P/LINEAR,e,13.6692,109.8482,132.1762,4.543905,0.1017560,0.15671969,289.8982,03/20.0/2026,2000,g  9.0,4.0
# From MPEC 2026-E43
188P/LINEAR-Mueller,e,10.5261,358.9109,26.8541,4.362958,0.1081515,0.41643597,357.3672,03/20.0/2026,2000,g 11.5,4.0
# From MPEC 2026-E44
190P/Mueller,e,2.1783,335.4027,50.4592,4.227852,0.1133768,0.52332488,51.1243,03/20.0/2026,2000,g 13.0,4.0
# From MPC191610
191P/McNaught,e,8.8395,98.1786,284.2513,3.641672,0.1418250,0.38481458,259.0291,03/20.0/2026,2000,g 13.0,4.0
# From MPC191610
192P/Shoemaker-Levy,e,24.5758,51.5089,313.0192,6.441251,0.0602905,0.77321980,40.0714,03/20.0/2026,2000,g 15.0,4.0
# From MPC191610
193P/LINEAR-NEAT,e,10.6772,335.1805,8.0840,3.580455,0.1454778,0.39241200,242.9780,03/20.0/2026,2000,g 14.0,4.0
# From MPC191610
194P/LINEAR,e,11.8031,349.4892,128.6699,4.124199,0.1176778,0.56339995,91.1515,03/20.0/2026,2000,g 16.0,4.0
# From MPEC 2026-F34
195P/Hill,e,36.4150,243.0859,250.6806,6.439288,0.0603181,0.31036200,13.6209,03/20.0/2026,2000,g  8.5,4.0
# From MPC191610
196P/Tichy,e,19.2885,24.1253,12.1502,3.807299,0.1326718,0.42715685,164.2773,03/20.0/2026,2000,g 13.5,4.0
# From MPC191611
197P/LINEAR,e,25.1554,66.0749,190.0081,2.912359,0.1983064,0.61685585,238.5861,03/20.0/2026,2000,g 16.5,2.0
# From MPC191611
198P/ODAS,e,1.3393,358.3203,69.2978,3.633141,0.1423248,0.44816751,16.9143,03/20.0/2026,2000,g 12.5,4.0
# From MPC191611
199P/Shoemaker,e,24.9404,92.3407,191.7263,5.869963,0.0693028,0.50412974,66.2551,03/20.0/2026,2000,g 10.0,4.0
# From MPC191611
200P/Larsen,e,12.0954,234.7337,134.4334,4.955387,0.0893486,0.33063951,216.9485,03/20.0/2026,2000,g  9.0,4.0
# From MPC191611
201P/LONEOS,e,5.7332,19.6696,41.6647,3.354393,0.1604291,0.63738287,281.8189,03/20.0/2026,2000,g 14.0,4.0
# From MPC191611
202P/Scotti,e,2.1416,177.2996,274.5432,4.099662,0.1187359,0.25092068,79.7425,03/20.0/2026,2000,g 13.5,4.0
# From MPC191611
203P/Korlevic,e,2.9762,290.2201,154.9818,4.668392,0.0977132,0.31630684,215.2249,03/20.0/2026,2000,g 14.5,2.0
# From MPC191611
204P/LINEAR-NEAT,e,6.5983,108.4721,356.7531,3.584433,0.1452357,0.48828670,176.9578,03/20.0/2026,2000,g 14.0,4.0
# From MPC191611
205P/Giacobini,e,15.3001,179.6242,154.1284,3.543447,0.1477628,0.56718500,225.7993,03/20.0/2026,2000,g 13.0,4.0
# From MPC191612
207P/NEAT,e,10.1964,198.1063,273.0747,3.887208,0.1286019,0.75852874,100.0573,03/20.0/2026,2000,g 16.0,4.0
# From MPC191612
208P/McMillan,e,4.4010,36.1644,311.3610,4.055016,0.1207022,0.37484827,68.9579,03/20.0/2026,2000,g 12.5,4.0
# From MPC191612
209P/LINEAR,e,21.2868,62.7503,152.4742,2.957108,0.1938221,0.67418587,118.9041,03/20.0/2026,2000,g 17.0,2.0
# From MPEC 2026-F34
210P/Christensen,e,10.2873,93.7965,345.9482,3.160110,0.1754490,0.83404954,20.5757,03/20.0/2026,2000,g 13.5,4.0
# From MPC191612
211P/Hill,e,18.9265,117.1001,4.3802,3.548723,0.1474334,0.34460002,185.9651,03/20.0/2026,2000,g 12.5,4.0
# From MPC191612
212P/NEAT,e,22.1488,97.9717,14.0906,3.904453,0.1277508,0.58674563,88.6321,03/20.0/2026,2000,g 17.0,2.0
# From MPC191612
213P/VanNess,e,10.6886,310.3007,7.8033,3.363322,0.1597907,0.41508039,135.5427,03/20.0/2026,2000,g 10.5,4.0
# From MPEC 2025-GB9
213P-B/Van Ness,e,10.6876,310.2985,7.8174,3.363093,0.1598070,0.41497572,135.5766,03/20.0/2026,2000,g 17.0,4.0
# From MPC191612
214P/LINEAR,e,15.1957,348.2254,190.1117,3.615643,0.1433593,0.48661549,182.0778,03/20.0/2026,2000,g 13.0,4.0
# From MPEC 2026-E43
215P/NEAT,e,10.5756,56.6829,262.1194,4.337255,0.1091143,0.16483744,253.1206,03/20.0/2026,2000,g 11.0,4.0
# From MPC191612
216P/LINEAR,e,9.0625,359.7619,151.8025,3.860787,0.1299243,0.44916462,104.3065,03/20.0/2026,2000,g 13.0,4.0
# From MPEC 2026-F34
217P/LINEAR,e,12.8702,125.3683,247.0175,3.947025,0.1256896,0.68951882,37.5792,03/20.0/2026,2000,g 12.0,4.0
# From MPEC 2026-EC7
218P/LINEAR,e,2.7267,174.7141,61.4149,3.059890,0.1841388,0.63091039,2.8896,03/20.0/2026,2000,g 16.0,4.0
# From MPC191613
219P/LINEAR,e,11.4143,230.1002,108.8978,3.661048,0.1407006,0.35873559,107.0698,03/20.0/2026,2000,g 11.0,4.0
# From MPC191613
220P/McNaught,e,8.1207,150.0841,180.5673,3.120835,0.1787713,0.50036183,344.6028,03/20.0/2026,2000,g 15.0,4.0
# From MPC191613
221P/LINEAR,e,10.3168,221.7686,46.7801,3.380866,0.1585485,0.52274444,241.9370,03/20.0/2026,2000,g 14.5,4.0
# From MPC191613
223P/Skiff,e,27.0068,346.6882,37.9904,4.158234,0.1162360,0.41606841,302.8251,03/20.0/2026,2000,g 12.0,4.0
# From MPC191613
224P/LINEAR-NEAT,e,13.2973,40.0365,16.8371,3.447961,0.1539432,0.40526504,195.0461,03/20.0/2026,2000,g 15.5,4.0
# From MPC191613
226P/Pigott-LINEAR-Kowalski,e,44.0412,54.0206,341.0404,3.765648,0.1348791,0.52861070,109.8070,03/20.0/2026,2000,g 12.5,4.0
# From MPC191614
227P/Catalina-LINEAR,e,7.5064,36.7833,105.6238,3.438051,0.1546093,0.52782291,114.6472,03/20.0/2026,2000,g 16.5,2.0
# From MPC191614
228P/LINEAR,e,7.9177,30.9491,114.9104,4.160425,0.1161442,0.17775799,255.4351,03/20.0/2026,2000,g 14.5,2.0
